{
  "type": "FeatureCollection",
  "features": [
    {
      "type": "Feature",
      "properties": {
        "norad_id": 33886,
        "name": "IRIDIUM 33 DEB",
        "group": "iridium-33-debris",
        "lat": 61.144373810554896,
        "lon": 71.41646320210181,
        "alt_km": 774.2172186706402,
        "timestamp": "2025-12-18T10:51:26.195581+00:00",
        "meta_object_name": "IRIDIUM 33 DEB",
        "meta_object_id": "1997-051BF",
        "meta_epoch": "2025-12-17T18:23:51.709344",
        "meta_mean_motion": 14.36057926,
        "meta_eccentricity": 0.00127005,
        "meta_inclination": 86.3828,
        "meta_ra_of_asc_node": 65.113,
        "meta_arg_of_pericenter": 223.4919,
        "meta_mean_anomaly": 254.6704,
        "meta_ephemeris_type": 0,
        "meta_classification_type": "U",
        "meta_norad_cat_id": 33886,
        "meta_element_set_no": 999,
        "meta_rev_at_epoch": 88124,
        "meta_bstar": 0.00015934351,
        "meta_mean_motion_dot": 4.83e-06,
        "meta_mean_motion_ddot": 0,
        "tle_line1": "1 33886U 97051BF  25351.76657071  .00000483  00000+0  15934-3 0  9994",
        "tle_line2": "2 33886  86.3828  65.1130 0012700 223.4919 254.6704 14.36057926881245"
      },
      "geometry": {
        "type": "Point",
        "coordinates": [
          71.41646320210181,
          61.144373810554896
        ]
      }
    },
    {
      "type": "Feature",
      "properties": {
        "norad_id": 33887,
        "name": "IRIDIUM 33 DEB",
        "group": "iridium-33-debris",
        "lat": 21.55896564100705,
        "lon": 2.3938227562701377,
        "alt_km": 771.0707870316237,
        "timestamp": "2025-12-18T10:51:26.195592+00:00",
        "meta_object_name": "IRIDIUM 33 DEB",
        "meta_object_id": "1997-051BG",
        "meta_epoch": "2025-12-17T12:04:10.318080",
        "meta_mean_motion": 14.37225313,
        "meta_eccentricity": 0.00049044,
        "meta_inclination": 86.3042,
        "meta_ra_of_asc_node": 1.3395,
        "meta_arg_of_pericenter": 206.8502,
        "meta_mean_anomaly": 305.3018,
        "meta_ephemeris_type": 0,
        "meta_classification_type": "U",
        "meta_norad_cat_id": 33887,
        "meta_element_set_no": 999,
        "meta_rev_at_epoch": 88233,
        "meta_bstar": 0.00012790558,
        "meta_mean_motion_dot": 4e-06,
        "meta_mean_motion_ddot": 0,
        "tle_line1": "1 33887U 97051BG  25351.50289720  .00000400  00000+0  12791-3 0  9996",
        "tle_line2": "2 33887  86.3042   1.3395 0004904 206.8502 305.3018 14.37225313882330"
      },
      "geometry": {
        "type": "Point",
        "coordinates": [
          2.3938227562701377,
          21.55896564100705
        ]
      }
    },
    {
      "type": "Feature",
      "properties": {
        "norad_id": 33953,
        "name": "IRIDIUM 33 DEB",
        "group": "iridium-33-debris",
        "lat": -69.33937098811074,
        "lon": -119.04738724224323,
        "alt_km": 727.8757010212767,
        "timestamp": "2025-12-18T10:51:26.195603+00:00",
        "meta_object_name": "IRIDIUM 33 DEB",
        "meta_object_id": "1997-051BN",
        "meta_epoch": "2025-12-17T16:09:30.671424",
        "meta_mean_motion": 14.55371526,
        "meta_eccentricity": 0.00181202,
        "meta_inclination": 86.3847,
        "meta_ra_of_asc_node": 51.6385,
        "meta_arg_of_pericenter": 87.8438,
        "meta_mean_anomaly": 42.2759,
        "meta_ephemeris_type": 0,
        "meta_classification_type": "U",
        "meta_norad_cat_id": 33953,
        "meta_element_set_no": 999,
        "meta_rev_at_epoch": 88375,
        "meta_bstar": 0.00082600684,
        "meta_mean_motion_dot": 3.613e-05,
        "meta_mean_motion_ddot": 0,
        "tle_line1": "1 33953U 97051BN  25351.67327166  .00003613  00000+0  82601-3 0  9991",
        "tle_line2": "2 33953  86.3847  51.6385 0018120  87.8438  42.2759 14.55371526883758"
      },
      "geometry": {
        "type": "Point",
        "coordinates": [
          -119.04738724224323,
          -69.33937098811074
        ]
      }
    },
    {
      "type": "Feature",
      "properties": {
        "norad_id": 33960,
        "name": "IRIDIUM 33 DEB",
        "group": "iridium-33-debris",
        "lat": -50.320972773521284,
        "lon": -77.70960472230023,
        "alt_km": 620.222797831595,
        "timestamp": "2025-12-18T10:51:26.195614+00:00",
        "meta_object_name": "IRIDIUM 33 DEB",
        "meta_object_id": "1997-051BV",
        "meta_epoch": "2025-12-17T19:11:44.757312",
        "meta_mean_motion": 14.85444413,
        "meta_eccentricity": 0.00074559,
        "meta_inclination": 86.2539,
        "meta_ra_of_asc_node": 287.1279,
        "meta_arg_of_pericenter": 54.0828,
        "meta_mean_anomaly": 8.2478,
        "meta_ephemeris_type": 0,
        "meta_classification_type": "U",
        "meta_norad_cat_id": 33960,
        "meta_element_set_no": 999,
        "meta_rev_at_epoch": 88942,
        "meta_bstar": 0.0022545906,
        "meta_mean_motion_dot": 0.000195,
        "meta_mean_motion_ddot": 0,
        "tle_line1": "1 33960U 97051BV  25351.79982358  .00019500  00000+0  22546-2 0  9995",
        "tle_line2": "2 33960  86.2539 287.1279 0007455  54.0828   8.2478 14.85444413889428"
      },
      "geometry": {
        "type": "Point",
        "coordinates": [
          -77.70960472230023,
          -50.320972773521284
        ]
      }
    },
    {
      "type": "Feature",
      "properties": {
        "norad_id": 33966,
        "name": "IRIDIUM 33 DEB",
        "group": "iridium-33-debris",
        "lat": -77.13128220940155,
        "lon": -120.3910757167228,
        "alt_km": 734.1102987618915,
        "timestamp": "2025-12-18T10:51:26.195624+00:00",
        "meta_object_name": "IRIDIUM 33 DEB",
        "meta_object_id": "1997-051CB",
        "meta_epoch": "2025-12-17T16:02:50.820000",
        "meta_mean_motion": 14.49613183,
        "meta_eccentricity": 0.00079463,
        "meta_inclination": 86.3919,
        "meta_ra_of_asc_node": 43.9121,
        "meta_arg_of_pericenter": 172.4415,
        "meta_mean_anomaly": 317.6514,
        "meta_ephemeris_type": 0,
        "meta_classification_type": "U",
        "meta_norad_cat_id": 33966,
        "meta_element_set_no": 999,
        "meta_rev_at_epoch": 88513,
        "meta_bstar": 0.00042551203,
        "meta_mean_motion_dot": 1.654e-05,
        "meta_mean_motion_ddot": 0,
        "tle_line1": "1 33966U 97051CB  25351.66864375  .00001654  00000+0  42551-3 0  9995",
        "tle_line2": "2 33966  86.3919  43.9121 0007946 172.4415 317.6514 14.49613183885137"
      },
      "geometry": {
        "type": "Point",
        "coordinates": [
          -120.3910757167228,
          -77.13128220940155
        ]
      }
    },
    {
      "type": "Feature",
      "properties": {
        "norad_id": 34071,
        "name": "IRIDIUM 33 DEB",
        "group": "iridium-33-debris",
        "lat": -38.807066131343895,
        "lon": 12.39937638770032,
        "alt_km": 738.481115495174,
        "timestamp": "2025-12-18T10:51:26.195634+00:00",
        "meta_object_name": "IRIDIUM 33 DEB",
        "meta_object_id": "1997-051CE",
        "meta_epoch": "2025-12-17T13:29:52.397664",
        "meta_mean_motion": 14.49486285,
        "meta_eccentricity": 0.00099928,
        "meta_inclination": 86.3453,
        "meta_ra_of_asc_node": 15.7325,
        "meta_arg_of_pericenter": 94.7771,
        "meta_mean_anomaly": 265.4575,
        "meta_ephemeris_type": 0,
        "meta_classification_type": "U",
        "meta_norad_cat_id": 34071,
        "meta_element_set_no": 999,
        "meta_rev_at_epoch": 88404,
        "meta_bstar": 0.00046266915,
        "meta_mean_motion_dot": 1.793e-05,
        "meta_mean_motion_ddot": 0,
        "tle_line1": "1 34071U 97051CE  25351.56241201  .00001793  00000+0  46267-3 0  9991",
        "tle_line2": "2 34071  86.3453  15.7325 0009992  94.7771 265.4575 14.49486285884042"
      },
      "geometry": {
        "type": "Point",
        "coordinates": [
          12.39937638770032,
          -38.807066131343895
        ]
      }
    },
    {
      "type": "Feature",
      "properties": {
        "norad_id": 34077,
        "name": "IRIDIUM 33 DEB",
        "group": "iridium-33-debris",
        "lat": 59.8922018112226,
        "lon": -137.26620703668573,
        "alt_km": 672.7034626163604,
        "timestamp": "2025-12-18T10:51:26.195645+00:00",
        "meta_object_name": "IRIDIUM 33 DEB",
        "meta_object_id": "1997-051CL",
        "meta_epoch": "2025-12-17T15:21:03.084192",
        "meta_mean_motion": 14.64888728,
        "meta_eccentricity": 0.00096586,
        "meta_inclination": 86.3859,
        "meta_ra_of_asc_node": 49.3493,
        "meta_arg_of_pericenter": 24.1381,
        "meta_mean_anomaly": 132.1739,
        "meta_ephemeris_type": 0,
        "meta_classification_type": "U",
        "meta_norad_cat_id": 34077,
        "meta_element_set_no": 999,
        "meta_rev_at_epoch": 88404,
        "meta_bstar": 0.0007469396,
        "meta_mean_motion_dot": 4.015e-05,
        "meta_mean_motion_ddot": 0,
        "tle_line1": "1 34077U 97051CL  25351.63961903  .00004015  00000+0  74694-3 0  9998",
        "tle_line2": "2 34077  86.3859  49.3493 0009658  24.1381 132.1739 14.64888728884047"
      },
      "geometry": {
        "type": "Point",
        "coordinates": [
          -137.26620703668573,
          59.8922018112226
        ]
      }
    }
  ]
}